SL-8 R/B                
1 11574U 79089B   26099.26344855  .00000294  00000+0  96809-4 0  9994
2 11574  74.0708  34.4455 0016329 202.5361 157.5080 14.42372551440515
SL-14 R/B               
1 11672U 80005B   26098.99570192  .00000533  00000+0  51267-4 0  9992
2 11672  82.5109 278.4790 0017077  64.8997 295.3992 14.90967731481005
SL-8 R/B                
1 12139U 81003B   26098.92134104  .00016760  00000+0  41633-3 0  9996
2 12139  82.9369 262.0372 0258638  73.6636 289.2867 15.12394844319242
SL-3 R/B                
1 12465U 81046B   26099.27589111  .00010791  00000+0  24436-3 0  9996
2 12465  81.2297 252.9877 0018027 272.9660  86.9521 15.42800854443143
SL-3 R/B                
1 12904U 81103B   26099.28606277  .00004758  00000+0  20837-3 0  9999
2 12904  81.1602 177.5386 0013391 178.8172 181.3094 15.21752622977882
SL-3 R/B                
1 13068U 82013B   26099.21647488  .00003914  00000+0  16758-3 0  9994
2 13068  81.1720 124.9820 0023533  78.2630 282.1241 15.22296658408993
SL-3 R/B                
1 13154U 82039B   26099.26805202  .00002061  00000+0  12343-3 0  9991
2 13154  81.1540 180.6986 0027964 221.8617 138.0471 15.10262634386256
SL-3 R/B                
1 13403U 82079B   26099.24299829  .00004665  00000+0  18312-3 0  9996
2 13403  81.1465 156.9964 0025272  64.7544 295.6304 15.25204764382352
SL-14 R/B               
1 13553U 82092B   26099.05817191  .00000371  00000+0  38843-4 0  9996
2 13553  82.5647 112.9863 0019844 196.0901 184.7894 14.86695089333447
SL-3 R/B                
1 13819U 83010B   26099.16373086  .00012288  00000+0  23837-3 0  9990
2 13819  81.1026 324.8574 0015174 303.6221  56.3576 15.47400676362654
SL-3 R/B                
1 14208U 83075B   26099.25045032  .00009642  00000+0  24818-3 0  9991
2 14208  97.6142 105.0031 0023134 118.3720 241.9861 15.39184780334851
COSMOS 1536             
1 14699U 84013A   26098.98794528  .00005090  00000+0  20656-3 0  9997
2 14699  82.5428  77.7146 0014666 168.0675 192.0913 15.24275500277235
SL-14 R/B               
1 14820U 84027B   26099.33135082  .00000558  00000+0  60962-4 0  9991
2 14820  82.5435 216.2755 0016836 228.7678 131.2088 14.86012315252188
SL-8 R/B                
1 15483U 85006B   26099.26644648  .00000253  00000+0  92582-4 0  9995
2 15483  74.0466 204.8836 0017339 113.1471 275.4416 14.37805776158429
SL-12 R/B(2)            
1 15772U 85042D   26099.24190912  .00000026  00000+0  33245-4 0  9993
2 15772  71.1105  23.1794 0032940  77.4370  74.6550 14.21991854118732
SL-14 R/B               
1 15945U 85069B   26099.17214764  .00000468  00000+0  50017-4 0  9994
2 15945  82.5298 356.2784 0020361  91.2706 269.0844 14.86467636177360
SL-16 R/B               
1 16182U 85097B   26099.28695363  .00000116  00000+0  82247-4 0  9999
2 16182  71.0013  76.1337 0008953 222.4617 237.1129 14.16602732 91566
