[{"OBJECT_NAME":"SL-8 R/B","OBJECT_ID":"1979-089B","EPOCH":"2026-04-09T06:19:21.954720","MEAN_MOTION":14.42372551,"ECCENTRICITY":0.00163299,"INCLINATION":74.0708,"RA_OF_ASC_NODE":34.4455,"ARG_OF_PERICENTER":202.5361,"MEAN_ANOMALY":157.508,"EPHEMERIS_TYPE":0,"CLASSIFICATION_TYPE":"U","NORAD_CAT_ID":11574,"ELEMENT_SET_NO":999,"REV_AT_EPOCH":44051,"BSTAR":9.6808854e-5,"MEAN_MOTION_DOT":2.94e-6,"MEAN_MOTION_DDOT":0},{"OBJECT_NAME":"SL-14 R/B","OBJECT_ID":"1980-005B","EPOCH":"2026-04-08T23:53:48.645888","MEAN_MOTION":14.90967731,"ECCENTRICITY":0.00170771,"INCLINATION":82.5109,"RA_OF_ASC_NODE":278.479,"ARG_OF_PERICENTER":64.8997,"MEAN_ANOMALY":295.3992,"EPHEMERIS_TYPE":0,"CLASSIFICATION_TYPE":"U","NORAD_CAT_ID":11672,"ELEMENT_SET_NO":999,"REV_AT_EPOCH":48100,"BSTAR":5.1267466e-5,"MEAN_MOTION_DOT":5.33e-6,"MEAN_MOTION_DDOT":0},{"OBJECT_NAME":"SL-8 R/B","OBJECT_ID":"1981-003B","EPOCH":"2026-04-08T22:06:43.865856","MEAN_MOTION":15.12394844,"ECCENTRICITY":0.02586389,"INCLINATION":82.9369,"RA_OF_ASC_NODE":262.0372,"ARG_OF_PERICENTER":73.6636,"MEAN_ANOMALY":289.2867,"EPHEMERIS_TYPE":0,"CLASSIFICATION_TYPE":"U","NORAD_CAT_ID":12139,"ELEMENT_SET_NO":999,"REV_AT_EPOCH":31924,"BSTAR":0.0004163286,"MEAN_MOTION_DOT":0.0001676,"MEAN_MOTION_DDOT":0},{"OBJECT_NAME":"SL-3 R/B","OBJECT_ID":"1981-046B","EPOCH":"2026-04-09T06:37:16.991904","MEAN_MOTION":15.42800854,"ECCENTRICITY":0.00180279,"INCLINATION":81.2297,"RA_OF_ASC_NODE":252.9877,"ARG_OF_PERICENTER":272.966,"MEAN_ANOMALY":86.9521,"EPHEMERIS_TYPE":0,"CLASSIFICATION_TYPE":"U","NORAD_CAT_ID":12465,"ELEMENT_SET_NO":999,"REV_AT_EPOCH":44314,"BSTAR":0.00024435853,"MEAN_MOTION_DOT":0.00010791,"MEAN_MOTION_DDOT":0},{"OBJECT_NAME":"SL-3 R/B","OBJECT_ID":"1981-103B","EPOCH":"2026-04-09T06:51:55.823328","MEAN_MOTION":15.21752622,"ECCENTRICITY":0.00133915,"INCLINATION":81.1602,"RA_OF_ASC_NODE":177.5386,"ARG_OF_PERICENTER":178.8172,"MEAN_ANOMALY":181.3094,"EPHEMERIS_TYPE":0,"CLASSIFICATION_TYPE":"U","NORAD_CAT_ID":12904,"ELEMENT_SET_NO":999,"REV_AT_EPOCH":97788,"BSTAR":0.0002083689,"MEAN_MOTION_DOT":4.758e-5,"MEAN_MOTION_DDOT":0},{"OBJECT_NAME":"SL-3 R/B","OBJECT_ID":"1982-013B","EPOCH":"2026-04-09T05:11:43.429632","MEAN_MOTION":15.22296658,"ECCENTRICITY":0.00235332,"INCLINATION":81.172,"RA_OF_ASC_NODE":124.982,"ARG_OF_PERICENTER":78.263,"MEAN_ANOMALY":282.1241,"EPHEMERIS_TYPE":0,"CLASSIFICATION_TYPE":"U","NORAD_CAT_ID":13068,"ELEMENT_SET_NO":999,"REV_AT_EPOCH":40899,"BSTAR":0.00016757642,"MEAN_MOTION_DOT":3.914e-5,"MEAN_MOTION_DDOT":0},{"OBJECT_NAME":"SL-3 R/B","OBJECT_ID":"1982-039B","EPOCH":"2026-04-09T06:25:59.694528","MEAN_MOTION":15.10262634,"ECCENTRICITY":0.00279642,"INCLINATION":81.154,"RA_OF_ASC_NODE":180.6986,"ARG_OF_PERICENTER":221.8617,"MEAN_ANOMALY":138.0471,"EPHEMERIS_TYPE":0,"CLASSIFICATION_TYPE":"U","NORAD_CAT_ID":13154,"ELEMENT_SET_NO":999,"REV_AT_EPOCH":38625,"BSTAR":0.00012343284,"MEAN_MOTION_DOT":2.061e-5,"MEAN_MOTION_DDOT":0},{"OBJECT_NAME":"SL-3 R/B","OBJECT_ID":"1982-079B","EPOCH":"2026-04-09T05:49:55.052256","MEAN_MOTION":15.25204764,"ECCENTRICITY":0.00252726,"INCLINATION":81.1465,"RA_OF_ASC_NODE":156.9964,"ARG_OF_PERICENTER":64.7544,"MEAN_ANOMALY":295.6304,"EPHEMERIS_TYPE":0,"CLASSIFICATION_TYPE":"U","NORAD_CAT_ID":13403,"ELEMENT_SET_NO":999,"REV_AT_EPOCH":38235,"BSTAR":0.00018311676,"MEAN_MOTION_DOT":4.665e-5,"MEAN_MOTION_DDOT":0},{"OBJECT_NAME":"SL-14 R/B","OBJECT_ID":"1982-092B","EPOCH":"2026-04-09T01:23:46.053024","MEAN_MOTION":14.86695089,"ECCENTRICITY":0.00198443,"INCLINATION":82.5647,"RA_OF_ASC_NODE":112.9863,"ARG_OF_PERICENTER":196.0901,"MEAN_ANOMALY":184.7894,"EPHEMERIS_TYPE":0,"CLASSIFICATION_TYPE":"U","NORAD_CAT_ID":13553,"ELEMENT_SET_NO":999,"REV_AT_EPOCH":33344,"BSTAR":3.8842568e-5,"MEAN_MOTION_DOT":3.71e-6,"MEAN_MOTION_DDOT":0},{"OBJECT_NAME":"SL-3 R/B","OBJECT_ID":"1983-010B","EPOCH":"2026-04-09T03:55:46.346304","MEAN_MOTION":15.47400676,"ECCENTRICITY":0.00151744,"INCLINATION":81.1026,"RA_OF_ASC_NODE":324.8574,"ARG_OF_PERICENTER":303.6221,"MEAN_ANOMALY":56.3576,"EPHEMERIS_TYPE":0,"CLASSIFICATION_TYPE":"U","NORAD_CAT_ID":13819,"ELEMENT_SET_NO":999,"REV_AT_EPOCH":36265,"BSTAR":0.00023837302,"MEAN_MOTION_DOT":0.00012288,"MEAN_MOTION_DDOT":0},{"OBJECT_NAME":"SL-3 R/B","OBJECT_ID":"1983-075B","EPOCH":"2026-04-09T06:00:38.907648","MEAN_MOTION":15.3918478,"ECCENTRICITY":0.00231349,"INCLINATION":97.6142,"RA_OF_ASC_NODE":105.0031,"ARG_OF_PERICENTER":118.372,"MEAN_ANOMALY":241.9861,"EPHEMERIS_TYPE":0,"CLASSIFICATION_TYPE":"U","NORAD_CAT_ID":14208,"ELEMENT_SET_NO":999,"REV_AT_EPOCH":33485,"BSTAR":0.00024818206,"MEAN_MOTION_DOT":9.642e-5,"MEAN_MOTION_DDOT":0},{"OBJECT_NAME":"COSMOS 1536","OBJECT_ID":"1984-013A","EPOCH":"2026-04-08T23:42:38.472192","MEAN_MOTION":15.242755,"ECCENTRICITY":0.00146663,"INCLINATION":82.5428,"RA_OF_ASC_NODE":77.7146,"ARG_OF_PERICENTER":168.0675,"MEAN_ANOMALY":192.0913,"EPHEMERIS_TYPE":0,"CLASSIFICATION_TYPE":"U","NORAD_CAT_ID":14699,"ELEMENT_SET_NO":999,"REV_AT_EPOCH":27723,"BSTAR":0.00020655725,"MEAN_MOTION_DOT":5.09e-5,"MEAN_MOTION_DDOT":0},{"OBJECT_NAME":"SL-14 R/B","OBJECT_ID":"1984-027B","EPOCH":"2026-04-09T07:57:08.710848","MEAN_MOTION":14.86012315,"ECCENTRICITY":0.00168361,"INCLINATION":82.5435,"RA_OF_ASC_NODE":216.2755,"ARG_OF_PERICENTER":228.7678,"MEAN_ANOMALY":131.2088,"EPHEMERIS_TYPE":0,"CLASSIFICATION_TYPE":"U","NORAD_CAT_ID":14820,"ELEMENT_SET_NO":999,"REV_AT_EPOCH":25218,"BSTAR":6.0961971e-5,"MEAN_MOTION_DOT":5.58e-6,"MEAN_MOTION_DDOT":0},{"OBJECT_NAME":"SL-8 R/B","OBJECT_ID":"1985-006B","EPOCH":"2026-04-09T06:23:40.975872","MEAN_MOTION":14.37805776,"ECCENTRICITY":0.00173397,"INCLINATION":74.0466,"RA_OF_ASC_NODE":204.8836,"ARG_OF_PERICENTER":113.1471,"MEAN_ANOMALY":275.4416,"EPHEMERIS_TYPE":0,"CLASSIFICATION_TYPE":"U","NORAD_CAT_ID":15483,"ELEMENT_SET_NO":999,"REV_AT_EPOCH":15842,"BSTAR":9.2582362e-5,"MEAN_MOTION_DOT":2.53e-6,"MEAN_MOTION_DDOT":0},{"OBJECT_NAME":"SL-12 R/B(2)","OBJECT_ID":"1985-042D","EPOCH":"2026-04-09T05:48:20.947968","MEAN_MOTION":14.21991854,"ECCENTRICITY":0.00329408,"INCLINATION":71.1105,"RA_OF_ASC_NODE":23.1794,"ARG_OF_PERICENTER":77.437,"MEAN_ANOMALY":74.655,"EPHEMERIS_TYPE":0,"CLASSIFICATION_TYPE":"U","NORAD_CAT_ID":15772,"ELEMENT_SET_NO":999,"REV_AT_EPOCH":11873,"BSTAR":3.3244545e-5,"MEAN_MOTION_DOT":2.6e-7,"MEAN_MOTION_DDOT":0},{"OBJECT_NAME":"SL-14 R/B","OBJECT_ID":"1985-069B","EPOCH":"2026-04-09T04:07:53.556096","MEAN_MOTION":14.86467636,"ECCENTRICITY":0.00203611,"INCLINATION":82.5298,"RA_OF_ASC_NODE":356.2784,"ARG_OF_PERICENTER":91.2706,"MEAN_ANOMALY":269.0844,"EPHEMERIS_TYPE":0,"CLASSIFICATION_TYPE":"U","NORAD_CAT_ID":15945,"ELEMENT_SET_NO":999,"REV_AT_EPOCH":17736,"BSTAR":5.0017205e-5,"MEAN_MOTION_DOT":4.68e-6,"MEAN_MOTION_DDOT":0},{"OBJECT_NAME":"SL-16 R/B","OBJECT_ID":"1985-097B","EPOCH":"2026-04-09T06:53:12.793632","MEAN_MOTION":14.16602732,"ECCENTRICITY":0.00089532,"INCLINATION":71.0013,"RA_OF_ASC_NODE":76.1337,"ARG_OF_PERICENTER":222.4617,"MEAN_ANOMALY":237.1129,"EPHEMERIS_TYPE":0,"CLASSIFICATION_TYPE":"U","NORAD_CAT_ID":16182,"ELEMENT_SET_NO":999,"REV_AT_EPOCH":9156,"BSTAR":8.2246959e-5,"MEAN_MOTION_DOT":1.16e-6,"MEAN_MOTION_DDOT":0}]
